STARLINK-36191          
1 67023U 25293W   26002.91668981 -.00086330  00000+0 -14132-2 0  9991
2 67023  69.9998 263.4445 0003375 268.8308 211.8742 15.52569512  3505
STARLINK-36192          
1 67024U 25293X   26002.91668981 -.00136763  00000+0 -22521-2 0  9999
2 67024  69.9997 263.4423 0003283 271.6370 210.9744 15.52599448  3615
STARLINK-36178          
1 67025U 25293Y   26002.91668981 -.00170929  00000+0 -28265-2 0  9993
2 67025  69.9997 263.4396 0003151 271.3489 213.1816 15.52609975  3619
STARLINK-36176          
1 67026U 25293Z   26002.91668981 -.00139362  00000+0 -22954-2 0  9999
2 67026  69.9997 263.4356 0003461 275.2820 213.0764 15.52602558  3613
STARLINK-36171          
1 67027U 25293AA  26002.91668981 -.00158150  00000+0 -26105-2 0  9998
2 67027  69.9996 263.4378 0003258 269.2569 217.1847 15.52612727  3610
STARLINK-36132          
1 67028U 25293AB  26002.91668981 -.00177822  00000+0 -29426-2 0  9995
2 67028  69.9995 263.4302 0003416 273.1406 219.0565 15.52613744  3615
STARLINK-36190          
1 67029U 25293AC  26002.91668981 -.00153138  00000+0 -25272-2 0  9995
2 67029  69.9998 263.4328 0003157 270.1105 220.1717 15.52601175  3619
STARLINK-36138          
1 67030U 25294A   26002.91668981 -.02077425  00000+0 -44303-1 0  9999
2 67030  43.0009  54.5905 0001189 267.6014  20.7529 15.47583728  3500
STARLINK-36150          
1 67031U 25294B   26002.91668981 -.00134032  00000+0 -32524-2 0  9999
2 67031  43.0008  54.6651 0001290 293.0596 324.4034 15.40751213  3694
STARLINK-36131          
1 67032U 25294C   26002.91668981  .00033552  00000+0  80818-3 0  9993
2 67032  43.0008  54.7552 0001500 277.3255 302.8424 15.40653229  3508
STARLINK-36137          
1 67033U 25294D   26002.91668981 -.00130781  00000+0 -31729-2 0  9994
2 67033  43.0010  54.7255 0001098 271.9399 320.6524 15.40743647  3506
STARLINK-36140          
1 67034U 25294E   26002.91668981 -.01368905  00000+0 -34816-1 0  9996
2 67034  43.0008  54.6363 0000969 284.0114 345.3966 15.41657444  3503
