CCSDS_OMM_VERS = 2.0
CREATION_DATE  = 
ORIGINATOR     = 

OBJECT_NAME    = STARLINK-36191
OBJECT_ID      = 2025-293W
CENTER_NAME    = EARTH
REF_FRAME      = TEME
TIME_SYSTEM    = UTC
MEAN_ELEMENT_THEORY = SGP/SGP4

EPOCH          = 2026-01-02T22:00:01.999584
MEAN_MOTION    = 15.52569512
ECCENTRICITY   = .00033751
INCLINATION    = 69.9998
RA_OF_ASC_NODE = 263.4445
ARG_OF_PERICENTER = 268.8308
MEAN_ANOMALY   = 211.8742

EPHEMERIS_TYPE = 0
CLASSIFICATION_TYPE = U
NORAD_CAT_ID   = 67023
ELEMENT_SET_NO = 999
REV_AT_EPOCH   = 350
BSTAR          = -.1413191E-2
MEAN_MOTION_DOT = -.8633E-3
MEAN_MOTION_DDOT = 0

CCSDS_OMM_VERS = 2.0
CREATION_DATE  = 
ORIGINATOR     = 

OBJECT_NAME    = STARLINK-36192
OBJECT_ID      = 2025-293X
CENTER_NAME    = EARTH
REF_FRAME      = TEME
TIME_SYSTEM    = UTC
MEAN_ELEMENT_THEORY = SGP/SGP4

EPOCH          = 2026-01-02T22:00:01.999584
MEAN_MOTION    = 15.52599448
ECCENTRICITY   = .00032832
INCLINATION    = 69.9997
RA_OF_ASC_NODE = 263.4423
ARG_OF_PERICENTER = 271.6370
MEAN_ANOMALY   = 210.9744

EPHEMERIS_TYPE = 0
CLASSIFICATION_TYPE = U
NORAD_CAT_ID   = 67024
ELEMENT_SET_NO = 999
REV_AT_EPOCH   = 361
BSTAR          = -.22521445E-2
MEAN_MOTION_DOT = -.136763E-2
MEAN_MOTION_DDOT = 0

CCSDS_OMM_VERS = 2.0
CREATION_DATE  = 
ORIGINATOR     = 

OBJECT_NAME    = STARLINK-36178
OBJECT_ID      = 2025-293Y
CENTER_NAME    = EARTH
REF_FRAME      = TEME
TIME_SYSTEM    = UTC
MEAN_ELEMENT_THEORY = SGP/SGP4

EPOCH          = 2026-01-02T22:00:01.999584
MEAN_MOTION    = 15.52609975
ECCENTRICITY   = .00031512
INCLINATION    = 69.9997
RA_OF_ASC_NODE = 263.4396
ARG_OF_PERICENTER = 271.3489
MEAN_ANOMALY   = 213.1816

EPHEMERIS_TYPE = 0
CLASSIFICATION_TYPE = U
NORAD_CAT_ID   = 67025
ELEMENT_SET_NO = 999
REV_AT_EPOCH   = 361
BSTAR          = -.28264902E-2
MEAN_MOTION_DOT = -.170929E-2
MEAN_MOTION_DDOT = 0

CCSDS_OMM_VERS = 2.0
CREATION_DATE  = 
ORIGINATOR     = 

OBJECT_NAME    = STARLINK-36176
OBJECT_ID      = 2025-293Z
CENTER_NAME    = EARTH
REF_FRAME      = TEME
TIME_SYSTEM    = UTC
MEAN_ELEMENT_THEORY = SGP/SGP4

EPOCH          = 2026-01-02T22:00:01.999584
MEAN_MOTION    = 15.52602558
ECCENTRICITY   = .00034618
INCLINATION    = 69.9997
RA_OF_ASC_NODE = 263.4356
ARG_OF_PERICENTER = 275.2820
MEAN_ANOMALY   = 213.0764

EPHEMERIS_TYPE = 0
CLASSIFICATION_TYPE = U
NORAD_CAT_ID   = 67026
ELEMENT_SET_NO = 999
REV_AT_EPOCH   = 361
BSTAR          = -.22954171E-2
MEAN_MOTION_DOT = -.139362E-2
MEAN_MOTION_DDOT = 0

CCSDS_OMM_VERS = 2.0
CREATION_DATE  = 
ORIGINATOR     = 

OBJECT_NAME    = STARLINK-36171
OBJECT_ID      = 2025-293AA
CENTER_NAME    = EARTH
REF_FRAME      = TEME
TIME_SYSTEM    = UTC
MEAN_ELEMENT_THEORY = SGP/SGP4

EPOCH          = 2026-01-02T22:00:01.999584
MEAN_MOTION    = 15.52612727
ECCENTRICITY   = .00032586
INCLINATION    = 69.9996
RA_OF_ASC_NODE = 263.4378
ARG_OF_PERICENTER = 269.2569
MEAN_ANOMALY   = 217.1847

EPHEMERIS_TYPE = 0
CLASSIFICATION_TYPE = U
NORAD_CAT_ID   = 67027
ELEMENT_SET_NO = 999
REV_AT_EPOCH   = 361
BSTAR          = -.26104913E-2
MEAN_MOTION_DOT = -.15815E-2
MEAN_MOTION_DDOT = 0

CCSDS_OMM_VERS = 2.0
CREATION_DATE  = 
ORIGINATOR     = 

OBJECT_NAME    = STARLINK-36132
OBJECT_ID      = 2025-293AB
CENTER_NAME    = EARTH
REF_FRAME      = TEME
TIME_SYSTEM    = UTC
MEAN_ELEMENT_THEORY = SGP/SGP4

EPOCH          = 2026-01-02T22:00:01.999584
MEAN_MOTION    = 15.52613744
ECCENTRICITY   = .00034166
INCLINATION    = 69.9995
RA_OF_ASC_NODE = 263.4302
ARG_OF_PERICENTER = 273.1406
MEAN_ANOMALY   = 219.0565

EPHEMERIS_TYPE = 0
CLASSIFICATION_TYPE = U
NORAD_CAT_ID   = 67028
ELEMENT_SET_NO = 999
REV_AT_EPOCH   = 361
BSTAR          = -.29425694E-2
MEAN_MOTION_DOT = -.177822E-2
MEAN_MOTION_DDOT = 0

CCSDS_OMM_VERS = 2.0
CREATION_DATE  = 
ORIGINATOR     = 

OBJECT_NAME    = STARLINK-36190
OBJECT_ID      = 2025-293AC
CENTER_NAME    = EARTH
REF_FRAME      = TEME
TIME_SYSTEM    = UTC
MEAN_ELEMENT_THEORY = SGP/SGP4

EPOCH          = 2026-01-02T22:00:01.999584
MEAN_MOTION    = 15.52601175
ECCENTRICITY   = .00031578
INCLINATION    = 69.9998
RA_OF_ASC_NODE = 263.4328
ARG_OF_PERICENTER = 270.1105
MEAN_ANOMALY   = 220.1717

EPHEMERIS_TYPE = 0
CLASSIFICATION_TYPE = U
NORAD_CAT_ID   = 67029
ELEMENT_SET_NO = 999
REV_AT_EPOCH   = 361
BSTAR          = -.25271984E-2
MEAN_MOTION_DOT = -.153138E-2
MEAN_MOTION_DDOT = 0

CCSDS_OMM_VERS = 2.0
CREATION_DATE  = 
ORIGINATOR     = 

OBJECT_NAME    = STARLINK-36138
OBJECT_ID      = 2025-294A
CENTER_NAME    = EARTH
REF_FRAME      = TEME
TIME_SYSTEM    = UTC
MEAN_ELEMENT_THEORY = SGP/SGP4

EPOCH          = 2026-01-02T22:00:01.999584
MEAN_MOTION    = 15.47583728
ECCENTRICITY   = .00011892
INCLINATION    = 43.0009
RA_OF_ASC_NODE = 54.5905
ARG_OF_PERICENTER = 267.6014
MEAN_ANOMALY   = 20.7529

EPHEMERIS_TYPE = 0
CLASSIFICATION_TYPE = U
NORAD_CAT_ID   = 67030
ELEMENT_SET_NO = 999
REV_AT_EPOCH   = 350
BSTAR          = -.44302853E-1
MEAN_MOTION_DOT = -.2077425E-1
MEAN_MOTION_DDOT = 0

CCSDS_OMM_VERS = 2.0
CREATION_DATE  = 
ORIGINATOR     = 

OBJECT_NAME    = STARLINK-36150
OBJECT_ID      = 2025-294B
CENTER_NAME    = EARTH
REF_FRAME      = TEME
TIME_SYSTEM    = UTC
MEAN_ELEMENT_THEORY = SGP/SGP4

EPOCH          = 2026-01-02T22:00:01.999584
MEAN_MOTION    = 15.40751213
ECCENTRICITY   = .00012909
INCLINATION    = 43.0008
RA_OF_ASC_NODE = 54.6651
ARG_OF_PERICENTER = 293.0596
MEAN_ANOMALY   = 324.4034

EPHEMERIS_TYPE = 0
CLASSIFICATION_TYPE = U
NORAD_CAT_ID   = 67031
ELEMENT_SET_NO = 999
REV_AT_EPOCH   = 369
BSTAR          = -.32524029E-2
MEAN_MOTION_DOT = -.134032E-2
MEAN_MOTION_DDOT = 0

CCSDS_OMM_VERS = 2.0
CREATION_DATE  = 
ORIGINATOR     = 

OBJECT_NAME    = STARLINK-36131
OBJECT_ID      = 2025-294C
CENTER_NAME    = EARTH
REF_FRAME      = TEME
TIME_SYSTEM    = UTC
MEAN_ELEMENT_THEORY = SGP/SGP4

EPOCH          = 2026-01-02T22:00:01.999584
MEAN_MOTION    = 15.40653229
ECCENTRICITY   = .00015003
INCLINATION    = 43.0008
RA_OF_ASC_NODE = 54.7552
ARG_OF_PERICENTER = 277.3255
MEAN_ANOMALY   = 302.8424

EPHEMERIS_TYPE = 0
CLASSIFICATION_TYPE = U
NORAD_CAT_ID   = 67032
ELEMENT_SET_NO = 999
REV_AT_EPOCH   = 350
BSTAR          = .80818364E-3
MEAN_MOTION_DOT = .33552E-3
MEAN_MOTION_DDOT = 0

CCSDS_OMM_VERS = 2.0
CREATION_DATE  = 
ORIGINATOR     = 

OBJECT_NAME    = STARLINK-36137
OBJECT_ID      = 2025-294D
CENTER_NAME    = EARTH
REF_FRAME      = TEME
TIME_SYSTEM    = UTC
MEAN_ELEMENT_THEORY = SGP/SGP4

EPOCH          = 2026-01-02T22:00:01.999584
MEAN_MOTION    = 15.40743647
ECCENTRICITY   = .00010986
INCLINATION    = 43.0010
RA_OF_ASC_NODE = 54.7255
ARG_OF_PERICENTER = 271.9399
MEAN_ANOMALY   = 320.6524

EPHEMERIS_TYPE = 0
CLASSIFICATION_TYPE = U
NORAD_CAT_ID   = 67033
ELEMENT_SET_NO = 999
REV_AT_EPOCH   = 350
BSTAR          = -.31728551E-2
MEAN_MOTION_DOT = -.130781E-2
MEAN_MOTION_DDOT = 0

CCSDS_OMM_VERS = 2.0
CREATION_DATE  = 
ORIGINATOR     = 

OBJECT_NAME    = STARLINK-36140
OBJECT_ID      = 2025-294E
CENTER_NAME    = EARTH
REF_FRAME      = TEME
TIME_SYSTEM    = UTC
MEAN_ELEMENT_THEORY = SGP/SGP4

EPOCH          = 2026-01-02T22:00:01.999584
MEAN_MOTION    = 15.41657444
ECCENTRICITY   = .00009691
INCLINATION    = 43.0008
RA_OF_ASC_NODE = 54.6363
ARG_OF_PERICENTER = 284.0114
MEAN_ANOMALY   = 345.3966

EPHEMERIS_TYPE = 0
CLASSIFICATION_TYPE = U
NORAD_CAT_ID   = 67034
ELEMENT_SET_NO = 999
REV_AT_EPOCH   = 350
BSTAR          = -.34815694E-1
MEAN_MOTION_DOT = -.1368905E-1
MEAN_MOTION_DDOT = 0

